API VERSION: 1.2
API SOURCE: NASA/JPL Horizons API



*******************************************************************************
Ephemeris / API_USER Fri Apr  3 11:29:26 2026 Pasadena, USA      / Horizons
*******************************************************************************
Target body name: Neptune (899)                   {source: nep097_merged}
Center body name: Earth (399)                     {source: nep097_merged}
Center-site name: BODY CENTER
*******************************************************************************
Start time      : A.D. 1944-Aug-10 19:10:59.9995 TDB
Stop  time      : A.D. 1944-Aug-12 19:10:59.9995 TDB
Step-size       : 60 minutes
*******************************************************************************
Center geodetic : 0.0, 0.0, 0.0                   {E-lon(deg),Lat(deg),Alt(km)}
Center cylindric: 0.0, 0.0, 0.0                   {E-lon(deg),Dxy(km),Dz(km)}
Center radii    : 6378.137, 6378.137, 6356.752 km {Equator_a, b, pole_c}
Output units    : AU-D
Calendar mode   : Mixed Julian/Gregorian
Output type     : GEOMETRIC cartesian states
Output format   : 3 (position, velocity, LT, range, range-rate)
EOP file        : eop.260402.p260629
EOP coverage    : DATA-BASED 1962-JAN-20 TO 2026-APR-02. PREDICTS-> 2026-JUN-28
Reference frame : ICRF
*******************************************************************************
            JDTDB,            Calendar Date (TDB),                      X,                      Y,                      Z,                     VX,                     VY,                     VZ,                     LT,                     RG,                     RR,
**************************************************************************************************************************************************************************************************************************************************************************
$$SOE
2431314.549305550, A.D. 1944-Aug-12 01:10:59.9995, -3.094283696530998E+01, -1.874577761558957E+00, -1.863585639467270E-03, -1.056491245459709E-02, -1.490804266935057E-02, -6.400834147078467E-03,  1.790385721823480E-01,  3.099956781503311E+01,  1.144746854251992E-02,
2431314.590972216, A.D. 1944-Aug-12 02:10:59.9995, -3.094327697871762E+01, -1.875199078978382E+00, -2.130351925772497E-03, -1.055573028351829E-02, -1.491519255955939E-02, -6.403947157798360E-03,  1.790413259654916E-01,  3.100004461780397E+01,  1.143906366133146E-02,
2431314.632638883, A.D. 1944-Aug-12 03:10:59.9995, -3.094371660943126E+01, -1.875820694197938E+00, -2.397247866900288E-03, -1.054654314270685E-02, -1.492233709609072E-02, -6.407057594496274E-03,  1.790440777254540E-01,  3.100052107027187E+01,  1.143065400254415E-02,
2431314.674305550, A.D. 1944-Aug-12 04:10:59.9995, -3.094415585724375E+01, -1.876442606996563E+00, -2.664273357139543E-03, -1.053735102715213E-02, -1.492947636314546E-02, -6.410165520996805E-03,  1.790468274610860E-01,  3.100099717223782E+01,  1.142223956605357E-02,
2431314.715972216, A.D. 1944-Aug-12 05:10:59.9995, -3.094459472194751E+01, -1.877064817155362E+00, -2.931428292325180E-03, -1.052815391872138E-02, -1.493661038462128E-02, -6.413270951040598E-03,  1.790495751712361E-01,  3.100147292350246E+01,  1.141382033501079E-02,
2431314.757638883, A.D. 1944-Aug-12 06:10:59.9995, -3.094503320333395E+01, -1.877687324455560E+00, -3.198712568133842E-03, -1.051895179101258E-02, -1.494373914543114E-02, -6.416373865786725E-03,  1.790523208547473E-01,  3.100194832386545E+01,  1.140539628195017E-02,
2431314.799305550, A.D. 1944-Aug-12 07:10:59.9995, -3.094547130119329E+01, -1.878310128677223E+00, -3.466126079009618E-03, -1.050974461296379E-02, -1.495086260726682E-02, -6.419474226757052E-03,  1.790550645104552E-01,  3.100242337312518E+01,  1.139696737334266E-02,
2431314.840972216, A.D. 1944-Aug-12 08:10:59.9995, -3.094590901531442E+01, -1.878933229598539E+00, -3.733668717550462E-03, -1.050053235145353E-02, -1.495798071983089E-02, -6.422571985060094E-03,  1.790578061371872E-01,  3.100289807107862E+01,  1.138853357286976E-02,
2431314.882638883, A.D. 1944-Aug-12 09:10:59.9995, -3.094634634548484E+01, -1.879556626995487E+00, -4.001340374212852E-03, -1.049131497309720E-02, -1.496509342844156E-02, -6.425667087635463E-03,  1.790605457337614E-01,  3.100337241752114E+01,  1.138009484367667E-02,
2431314.924305550, A.D. 1944-Aug-12 10:10:59.9995, -3.094678329149066E+01, -1.880180320641766E+00, -4.269140937226878E-03, -1.048209244541620E-02, -1.497220067880231E-02, -6.428759481169184E-03,  1.790632832989876E-01,  3.100384641224664E+01,  1.137165114982837E-02,
2431314.965972216, A.D. 1944-Aug-12 11:10:59.9995, -3.094721985311669E+01, -1.880804310308864E+00, -4.537070292635929E-03, -1.047286473753076E-02, -1.497930241962224E-02, -6.431849114244312E-03,  1.790660188316667E-01,  3.100432005504754E+01,  1.136320245716047E-02,
2431315.007638883, A.D. 1944-Aug-12 12:10:59.9995, -3.094765603014644E+01, -1.881428595766221E+00, -4.805128324397255E-03, -1.046363182050299E-02, -1.498639860367407E-02, -6.434935938210802E-03,  1.790687523305919E-01,  3.100479334571486E+01,  1.135474873368650E-02,
2431315.049305550, A.D. 1944-Aug-12 13:10:59.9995, -3.094809182236233E+01, -1.882053176781392E+00, -5.073314914499749E-03, -1.045439366743469E-02, -1.499348918778389E-02, -6.438019907183305E-03,  1.790714837945491E-01,  3.100526628403838E+01,  1.134628994969536E-02,
2431315.090972216, A.D. 1944-Aug-12 14:10:59.9995, -3.094852722954566E+01, -1.882678053120206E+00, -5.341629943069483E-03, -1.044515025340353E-02, -1.500057413216072E-02, -6.441100977505476E-03,  1.790742132223170E-01,  3.100573886980667E+01,  1.133782607764755E-02,
2431315.132638883, A.D. 1944-Aug-12 15:10:59.9995, -3.094896225147671E+01, -1.883303224546889E+00, -5.610073288446157E-03, -1.043590155530312E-02, -1.500765339939468E-02, -6.444179106954587E-03,  1.790769406126680E-01,  3.100621110280715E+01,  1.132935709195491E-02,
2431315.174305550, A.D. 1944-Aug-12 16:10:59.9995, -3.094939688793491E+01, -1.883928690824138E+00, -5.878644827225432E-03, -1.042664755163544E-02, -1.501472695337951E-02, -6.447254253900614E-03,  1.790796659643688E-01,  3.100668298282630E+01,  1.132088296870817E-02,
2431315.215972216, A.D. 1944-Aug-12 17:10:59.9995, -3.094983113869872E+01, -1.884554451713156E+00, -6.147344434267847E-03, -1.041738822228931E-02, -1.502179475834909E-02, -6.450326376579634E-03,  1.790823892761803E-01,  3.100715450964955E+01,  1.131240368539724E-02,
2431315.257638883, A.D. 1944-Aug-12 18:10:59.9995, -3.095026500354586E+01, -1.885180506973651E+00, -6.416171982681534E-03, -1.040812354832555E-02, -1.502885677815805E-02, -6.453395432592181E-03,  1.790851105468580E-01,  3.100762568306145E+01,  1.130391922065300E-02,
2431315.299305550, A.D. 1944-Aug-12 19:10:59.9995, -3.095069848225327E+01, -1.885806856363808E+00, -6.685127343790994E-03, -1.039885351177856E-02, -1.503591297588346E-02, -6.456461378693388E-03,  1.790878297751527E-01,  3.100809650284569E+01,  1.129542955402480E-02,
